EUTELSAT 33A            
1 27948U 03043A   16205.08244464  .00000143  00000-0  00000+0 0  9993
2 27948   1.7103  79.6571 0000804 210.5830  71.5349  1.00273267 47064
GALAXY 13 (HORIZONS-1)  
1 27954U 03044A   16205.39878418  .00000038  00000-0  00000+0 0  9990
2 27954   0.0253  76.3641 0001660 294.0337 307.6723  1.00271804 46907
ZHONGXING-20            
1 28082U 03052A   16206.52915443 -.00000337  00000-0  00000+0 0  9991
2 28082   2.8651  72.8941 0001916  70.7100  92.8040  1.00274665 46517
YAMAL 202               
1 28089U 03053A   16205.85188133  .00000109  00000-0  00000+0 0  9998
2 28089   0.0468  81.8479 0003073  47.5735 168.2489  1.00274594 46424
AMOS-2                  
1 28132U 03059A   16205.84280559 -.00000045  00000-0  00000+0 0  9997
2 28132   0.0392  80.6529 0003596  32.5368 128.1808  1.00272376 46132
EXPRESS-AM22 (SESAT 2)  
1 28134U 03060A   16205.95543580 -.00000148  00000-0  00000-0 0  9994
2 28134   0.0289 154.4098 0001424  37.2912 174.4615  1.00270012 46039
AMC-10 (GE-10)          
1 28154U 04003A   16205.61464411  .00000078  00000-0  00000+0 0  9992
2 28154   0.0549 274.1422 0002746 193.3599 280.5284  1.00268054 45688
ABS-4 (MOBISAT-1)       
1 28184U 04007A   16205.90483769  .00000030  00000-0  00000-0 0  9997
2 28184   0.0038 353.3797 0001706 119.5047 215.8810  1.00272229 16078
EUTELSAT 7A             
1 28187U 04008A   16206.04285537  .00000036  00000-0  00000+0 0  9995
2 28187   0.0670 345.5569 0005246 156.1724 182.8697  1.00270725 45320
DIRECTV 7S              
1 28238U 04016A   16205.40083493 -.00000009  00000-0  00000-0 0  9999
2 28238   0.0288 326.9192 0003008 163.3263 196.5369  1.00271581 44811
AMC-11 (GE-11)          
1 28252U 04017A   16205.42931836  .00000059  00000-0  00000+0 0  9994
2 28252   0.0230 347.6514 0002554 145.7414 191.7289  1.00272903 44445
INTELSAT 10-02          
1 28358U 04022A   16205.27958280 -.00000021  00000-0  00000-0 0  9993
2 28358   0.0108 108.7839 0000646 357.8125 294.5005  1.00272513 44385
APSTAR 5 (TELSTAR 18)   
1 28364U 04024A   16204.59493927 -.00000303  00000-0  00000-0 0  9991
2 28364   0.0344 271.7781 0002996 208.8981 172.2512  1.00270409 44282
ANIK F2                 
1 28378U 04027A   16205.39002172 -.00000060  00000-0  00000+0 0  9995
2 28378   0.0164  32.1659 0000388 107.5578 191.1629  1.00271523 44096
AMAZONAS 1              
1 28393U 04031A   16206.27467626 -.00000258  00000-0  00000+0 0  9993
2 28393   1.0707  85.3492 0003266  57.7564 222.0117  1.00270215 43879
AMC-15                  
1 28446U 04041A   16205.54836375 -.00000099  00000-0  00000+0 0  9996
2 28446   0.0536 284.6661 0002775 199.3833 270.0055  1.00271237 43133
AMC-16                  
1 28472U 04048A   16206.32953987 -.00000218  00000-0  00000+0 0  9991
2 28472   0.0495 281.4252 0002668 183.1356 231.5499  1.00271025 42564
NSS-10 (AMC-12)         
1 28526U 05003A   16205.41061640 -.00000261  00000-0  00000+0 0  9996
2 28526   0.0358 309.4699 0003000 179.0203 283.4428  1.00272579 42062
XTAR-EUR                
1 28542U 05005A   16205.08273967  .00000141  00000-0  00000+0 0  9992
2 28542   0.0965 269.8375 0002366 216.9912 233.1877  1.00270703 41927
XM-3 (RHYTHM)           
1 28626U 05008A   16206.11976307 -.00000216  00000-0  00000+0 0  9995
2 28626   0.0426 227.1712 0000607 249.4735 143.6182  1.00270202 41810
INMARSAT 4-F1           
1 28628U 05009A   16205.88285500 -.00000271  00000-0  00000+0 0  9990
2 28628   2.8265   7.2314 0003035 109.3440 286.7847  1.00271073 41435
EXPRESS-AM2             
1 28629U 05010A   16205.95543580 -.00000149  00000-0  00000-0 0  9991
2 28629   1.6658  80.8907 0001523  93.2598 191.9302  1.00271522  4733
APSTAR 6                
1 28638U 05012A   16205.94599740 -.00000329  00000-0  00000-0 0  9991
2 28638   0.0283  71.9253 0002956  44.1637 300.5813  1.00270966 66166
SPACEWAY 1              
1 28644U 05015A   16206.18426284 -.00000113  00000-0  00000+0 0  9990
2 28644   0.0136 210.7318 0000638 220.9384 194.0758  1.00267564 41261
DIRECTV 8               
1 28659U 05019A   16204.44518188 -.00000124  00000-0  00000+0 0  9994
2 28659   0.0118  63.2399 0003253  67.6114 229.1721  1.00271247 40925
GALAXY 28 (G-28)        
1 28702U 05022A   16206.34211473 -.00000197  00000-0  00000+0 0  9995
2 28702   0.0123  62.8943 0001235 306.8287 326.9207  1.00272461 40572
EXPRESS-AM3             
1 28707U 05023A   16205.75257682 -.00000332  00000-0  00000-0 0  9999
2 28707   0.0582 237.5596 0000381 267.2839 170.9539  1.00269311 40592
THAICOM 4               
1 28786U 05028A   16205.88738907 -.00000373  00000-0  00000+0 0  9993
2 28786   0.0179  53.8386 0002489  71.9422 255.1876  1.00270773 40095
GALAXY 14 (G-14)        
1 28790U 05030A   16205.36147014  .00000027  00000-0  00000+0 0  9992
2 28790   0.0400 286.0875 0002527 199.2098 181.3528  1.00271243 40048
ANIK F1R                
1 28868U 05036A   16205.36347584 -.00000085  00000-0  00000+0 0  9993
2 28868   0.0486 299.6087 0003604 247.4637 137.9727  1.00277252 39890
GALAXY 15 (G-15)        
1 28884U 05041A   16205.43149428  .00000069  00000-0  00000+0 0  9993
2 28884   0.0655 273.7381 0001483 225.7869 184.3988  1.00272761 39362
SYRACUSE 3A             
1 28885U 05041B   16206.08148519  .00000118  00000-0  00000+0 0  9991
2 28885   0.0256  72.2192 0002673  46.2343 260.0777  1.00272868 39486
INMARSAT 4-F2           
1 28899U 05044A   16206.00463401  .00000001  00000-0  00000+0 0  9992
2 28899   2.5105   7.3074 0002616 122.3368 238.0635  1.00272146 39251
TELKOM 2                
1 28902U 05046A   16205.70721051 -.00000374  00000-0  00000-0 0  9998
2 28902   0.0318 260.1160 0001173 238.1843 176.1296  1.00269774 39181
SPACEWAY 2              
1 28903U 05046B   16206.18163199 -.00000138  00000-0  00000+0 0  9992
2 28903   0.0019 164.4005 0000101  72.2529  31.9921  1.00271875 39247
INSAT-4A                
1 28911U 05049A   16205.93032432 -.00000176  00000-0  00000-0 0  9994
2 28911   0.0354 276.0734 0002523 307.8637 136.0371  1.00270647  9467
METEOSAT-9 (MSG-2)      
1 28912U 05049B   16206.28714634  .00000049  00000-0  00000+0 0  9992
2 28912   1.5682  68.6916 0000516 309.5745  36.7407  1.00271082 38826
EUTELSAT 172A (GE-23)   
1 28924U 05052A   16205.81044043 -.00000017  00000-0  00000-0 0  9994
2 28924   0.0644  20.2676 0005322 105.3963 280.0607  1.00271920 16094
ECHOSTAR 10             
1 28935U 06003A   16206.40274353 -.00000067  00000-0  00000+0 0  9992
2 28935   0.0523 275.0248 0002506 244.6473 177.6648  1.00271034 38266
HIMAWARI-7 (MTSAT-2)    
1 28937U 06004A   16206.38939453 -.00000254  00000-0  00000+0 0  9999
2 28937   0.0396 276.9197 0003892 192.4724 118.3482  1.00272196 38108
SPAINSAT                
1 28945U 06007A   16206.24339647 -.00000228  00000-0  00000+0 0  9996
2 28945   0.0160 246.9100 0003746 270.7157 202.3907  1.00268340 37982
EUTELSAT HOT BIRD 13E   
1 28946U 06007B   16205.12713515  .00000077  00000-0  00000+0 0  9994
2 28946   0.0138 109.0338 0006252  37.1361 213.8651  1.00270985 38046
JCSAT-5A                
1 29045U 06010A   16205.94920443 -.00000339  00000-0  00000-0 0  9992
2 29045   0.0416 251.1339 0001722 230.5059 294.2156  1.00269549 37525
ASTRA 1KR               
1 29055U 06012A   16206.21592351  .00000108  00000-0  00000+0 0  9991
2 29055   0.0646 271.7758 0003078 259.7762 227.7238  1.00272243 37497
GOES 13                 
1 29155U 06018A   16205.37180291 -.00000259  00000-0  00000+0 0  9998
2 29155   0.1113 263.5026 0004140 194.1961 262.3428  1.00282747 37260
EUTELSAT 113 WEST A     
1 29162U 06020A   16204.47885067 -.00000046  00000-0  00000+0 0  9996
2 29162   0.0243 268.0211 0002741 222.8628 229.1349  1.00271750 37200
THAICOM 5               
1 29163U 06020B   16206.08954272 -.00000132  00000-0  00000+0 0  9997
2 29163   0.0616 262.6338 0002001 280.9468 229.3504  1.00272940 37286
GALAXY 16 (G-16)        
1 29236U 06023A   16206.35600137 -.00000139  00000-0  00000+0 0  9996
2 29236   0.0518 244.7236 0003102 243.3699 203.5599  1.00272860 37018
EUTELSAT HOT BIRD 13B   
1 29270U 06032A   16205.81297328  .00000076  00000-0  00000+0 0  9997
2 29270   0.0606   8.7408 0002845  91.3325 147.5345  1.00269964 36604
JCSAT-3A                
1 29272U 06033A   16205.70216425 -.00000356  00000-0  00000-0 0  9990
2 29272   0.0139 356.4897 0002094 130.9452 195.1941  1.00271865 11482
SYRACUSE 3B             
1 29273U 06033B   16206.22001567 -.00000055  00000-0  00000+0 0  9993
2 29273   0.0163  64.2081 0002859  57.7950 254.3620  1.00270944 36506
KOREASAT 5 (MUGUNGWHA 5)
1 29349U 06034A   16205.83783291 -.00000369  00000-0  00000+0 0  9993
2 29349   0.0233  88.6944 0000957  20.5244 247.4368  1.00273160 36388
ZHONGXING-22A           
1 29398U 06038A   16206.53228139 -.00000330  00000-0  00000+0 0  9992
2 29398   5.2203  59.8490 0005602 122.2687  53.6820  1.00272734 36167
DIRECTV 9S              
1 29494U 06043A   16205.42605935 -.00000124  00000-0  00000+0 0  9996
2 29494   0.0136 101.3958 0003292  20.3314 232.1316  1.00271817 35852
OPTUS D1                
1 29495U 06043B   16205.81583120 -.00000122  00000-0  00000+0 0  9999
2 29495   0.0326 321.6245 0003293 163.0635 270.9715  1.00271343 35893
XM-4 (BLUES)            
1 29520U 06049A   16206.20396605 -.00000034  00000-0  00000+0 0  9990
2 29520   0.0098 229.6707 0000443 294.9267  95.9366  1.00270980 35744
BADR-4                  
1 29526U 06051A   16206.21983308  .00000133  00000-0  00000+0 0  9991
2 29526   0.0461 344.7428 0001132 107.4010 315.3395  1.00272712 35648
FENGYUN 2D              
1 29640U 06053A   16205.85002161 -.00000372  00000-0  10000-3 0  9999
2 29640   3.8407  66.0928 0001342 264.9478  40.2111  1.00285022 35306
WILDBLUE-1              
1 29643U 06054A   16206.40274400 -.00000061  00000-0  00000+0 0  9992
2 29643   0.0298 104.2518 0002109  40.7047 191.3937  1.00271508 35296
